{
    "links": {
        "self": "http://www.neowsapp.com/rest/v1/neo/3478350?api_key=iIulBulltgU6a56xZRHN4H3l9WmuAYTsLGpBGhQ2"
    },
    "id": "3478350",
    "neo_reference_id": "3478350",
    "name": "(2009 WD52)",
    "designation": "2009 WD52",
    "nasa_jpl_url": "http://ssd.jpl.nasa.gov/sbdb.cgi?sstr=3478350",
    "absolute_magnitude_h": 24.9,
    "estimated_diameter": {
        "kilometers": {
            "estimated_diameter_min": 0.0278326768,
            "estimated_diameter_max": 0.0622357573
        },
        "meters": {
            "estimated_diameter_min": 27.8326768072,
            "estimated_diameter_max": 62.2357573367
        },
        "miles": {
            "estimated_diameter_min": 0.0172944182,
            "estimated_diameter_max": 0.0386714948
        },
        "feet": {
            "estimated_diameter_min": 91.3145593761,
            "estimated_diameter_max": 204.1855621004
        }
    },
    "is_potentially_hazardous_asteroid": false,
    "close_approach_data": [
        {
            "close_approach_date": "2006-11-20",
            "close_approach_date_full": "2006-Nov-20 05:23",
            "epoch_date_close_approach": 1164000180000,
            "relative_velocity": {
                "kilometers_per_second": "16.2238507245",
                "kilometers_per_hour": "58405.8626083537",
                "miles_per_hour": "36291.1316857296"
            },
            "miss_distance": {
                "astronomical": "0.1081507452",
                "lunar": "42.0706398828",
                "kilometers": "16179121.120832724",
                "miles": "10053239.6895666312"
            },
            "orbiting_body": "Earth"
        },
        {
            "close_approach_date": "2009-11-22",
            "close_approach_date_full": "2009-Nov-22 13:20",
            "epoch_date_close_approach": 1258896000000,
            "relative_velocity": {
                "kilometers_per_second": "16.5884068782",
                "kilometers_per_hour": "59718.2647615517",
                "miles_per_hour": "37106.6073458653"
            },
            "miss_distance": {
                "astronomical": "0.0598982936",
                "lunar": "23.3004362104",
                "kilometers": "8960657.139194632",
                "miles": "5567894.1596126416"
            },
            "orbiting_body": "Earth"
        },
        {
            "close_approach_date": "2012-06-22",
            "close_approach_date_full": "2012-Jun-22 18:10",
            "epoch_date_close_approach": 1340388600000,
            "relative_velocity": {
                "kilometers_per_second": "15.0501243498",
                "kilometers_per_hour": "54180.447659163",
                "miles_per_hour": "33665.6231579949"
            },
            "miss_distance": {
                "astronomical": "0.4998516772",
                "lunar": "194.4423024308",
                "kilometers": "74776746.225047564",
                "miles": "46464115.5345778232"
            },
            "orbiting_body": "Earth"
        },
        {
            "close_approach_date": "2012-11-25",
            "close_approach_date_full": "2012-Nov-25 00:57",
            "epoch_date_close_approach": 1353805020000,
            "relative_velocity": {
                "kilometers_per_second": "17.3002963749",
                "kilometers_per_hour": "62281.0669495676",
                "miles_per_hour": "38699.0329609688"
            },
            "miss_distance": {
                "astronomical": "0.105323244",
                "lunar": "40.970741916",
                "kilometers": "15756132.96389028",
                "miles": "9790407.036554664"
            },
            "orbiting_body": "Earth"
        }
    ],
    "orbital_data": {
        "orbit_id": "7",
        "orbit_determination_date": "2017-04-06 08:58:58",
        "first_observation_date": "2009-11-22",
        "last_observation_date": "2009-11-25",
        "data_arc_in_days": 3,
        "observations_used": 46,
        "orbit_uncertainty": "8",
        "minimum_orbit_intersection": ".0598621",
        "jupiter_tisserand_invariant": "4.805",
        "epoch_osculation": "2455159.5",
        "eccentricity": ".2260010989204436",
        "semi_major_axis": "1.314471934353153",
        "inclination": "30.2212909024384",
        "ascending_node_longitude": "61.60192093664636",
        "orbital_period": "550.459540889919",
        "perihelion_distance": "1.017399832689259",
        "perihelion_argument": "326.9013363961553",
        "aphelion_distance": "1.611544036017046",
        "perihelion_time": "2455127.684254361549",
        "mean_anomaly": "20.80746645125889",
        "mean_motion": ".6539990194701574",
        "equinox": "J2000",
        "orbit_class": {
            "orbit_class_type": "AMO",
            "orbit_class_description": "Near-Earth asteroid orbits similar to that of 1221 Amor",
            "orbit_class_range": "1.017 AU < q (perihelion) < 1.3 AU"
        }
    },
    "is_sentry_object": false
}